{"type": "FeatureCollection", "features": [ {"type": "Feature", "properties": {"norad_id": 39019, "name": "PLEIADES 1B", "group": "resource", "lat": 34.556196511875456, "lon": 67.43675523983501, "alt_km": 695.0354930737931, "timestamp": "2025-12-26T16:33:55.240834+00:00", "meta": {"OBJECT_NAME": "PLEIADES 1B", "OBJECT_ID": "2012-068A", "EPOCH": "2025-12-26T06:31:37.246368", "MEAN_MOTION": 14.58565258, "ECCENTRICITY": 0.0001136, "INCLINATION": 98.1775, "RA_OF_ASC_NODE": 72.7089, "ARG_OF_PERICENTER": 86.575, "MEAN_ANOMALY": 273.5579, "EPHEMERIS_TYPE": 0, "CLASSIFICATION_TYPE": "U", "NORAD_CAT_ID": 39019, "ELEMENT_SET_NO": 999, "REV_AT_EPOCH": 69564, "BSTAR": 0.00011171698, "MEAN_MOTION_DOT": 4.74e-06, "MEAN_MOTION_DDOT": 0}, "tle": {"line1": "1 39019U 12068A   25360.27195887  .00000474  00000+0  11172-3 0  9991", "line2": "2 39019  98.1775  72.7089 0001136  86.5750 273.5579 14.58565258695643"}}, "geometry": {"type": "Point", "coordinates": [67.43675523983501, 34.556196511875456]}}, {"type": "Feature", "properties": {"norad_id": 39030, "name": "GOKTURK 2", "group": "resource", "lat": 9.231897263074577, "lon": -159.60105418821837, "alt_km": 645.9999296024371, "timestamp": "2025-12-26T16:33:55.240843+00:00", "meta": {"OBJECT_NAME": "GOKTURK 2", "OBJECT_ID": "2012-073A", "EPOCH": "2025-12-26T06:45:23.840352", "MEAN_MOTION": 14.75310241, "ECCENTRICITY": 0.00014749, "INCLINATION": 97.6886, "RA_OF_ASC_NODE": 201.2687, "ARG_OF_PERICENTER": 106.039, "MEAN_ANOMALY": 254.0983, "EPHEMERIS_TYPE": 0, "CLASSIFICATION_TYPE": "U", "NORAD_CAT_ID": 39030, "ELEMENT_SET_NO": 999, "REV_AT_EPOCH": 69901, "BSTAR": 0.00013684208, "MEAN_MOTION_DOT": 8.8e-06, "MEAN_MOTION_DDOT": 0}, "tle": {"line1": "1 39030U 12073A   25360.28152593  .00000880  00000+0  13684-3 0  9999", "line2": "2 39030  97.6886 201.2687 0001474 106.0390 254.0983 14.75310241699016"}}, "geometry": {"type": "Point", "coordinates": [-159.60105418821837, 9.231897263074577]}}, {"type": "Feature", "properties": {"norad_id": 39084, "name": "LANDSAT 8", "group": "resource", "lat": 46.65683239780694, "lon": -102.64886012575543, "alt_km": 697.8337877722197, "timestamp": "2025-12-26T16:33:55.240852+00:00", "meta": {"OBJECT_NAME": "LANDSAT 8", "OBJECT_ID": "2013-008A", "EPOCH": "2025-12-26T06:04:13.437984", "MEAN_MOTION": 14.57115874, "ECCENTRICITY": 0.00010484, "INCLINATION": 98.2055, "RA_OF_ASC_NODE": 68.1259, "ARG_OF_PERICENTER": 93.5566, "MEAN_ANOMALY": 266.5752, "EPHEMERIS_TYPE": 0, "CLASSIFICATION_TYPE": "U", "NORAD_CAT_ID": 39084, "ELEMENT_SET_NO": 999, "REV_AT_EPOCH": 67271, "BSTAR": 0.00010638914, "MEAN_MOTION_DOT": 4.34e-06, "MEAN_MOTION_DDOT": 0}, "tle": {"line1": "1 39084U 13008A   25360.25293331  .00000434  00000+0  10639-3 0  9992", "line2": "2 39084  98.2055  68.1259 0001048  93.5566 266.5752 14.57115874672712"}}, "geometry": {"type": "Point", "coordinates": [-102.64886012575543, 46.65683239780694]}}, {"type": "Feature", "properties": {"norad_id": 39086, "name": "SARAL", "group": "resource", "lat": -22.605450243992337, "lon": -171.97013926915076, "alt_km": 788.4125315271631, "timestamp": "2025-12-26T16:33:55.240862+00:00", "meta": {"OBJECT_NAME": "SARAL", "OBJECT_ID": "2013-009A", "EPOCH": "2025-12-26T06:36:56.111616", "MEAN_MOTION": 14.3276166, "ECCENTRICITY": 0.0002956, "INCLINATION": 98.5504, "RA_OF_ASC_NODE": 184.0294, "ARG_OF_PERICENTER": 83.225, "MEAN_ANOMALY": 276.9271, "EPHEMERIS_TYPE": 0, "CLASSIFICATION_TYPE": "U", "NORAD_CAT_ID": 39086, "ELEMENT_SET_NO": 999, "REV_AT_EPOCH": 67084, "BSTAR": 6.5496021e-05, "MEAN_MOTION_DOT": 1.35e-06, "MEAN_MOTION_DDOT": 0}, "tle": {"line1": "1 39086U 13009A   25360.27564944  .00000135  00000+0  65496-4 0  9998", "line2": "2 39086  98.5504 184.0294 0002956  83.2250 276.9271 14.32761660670844"}}, "geometry": {"type": "Point", "coordinates": [-171.97013926915076, -22.605450243992337]}}, {"type": "Feature", "properties": {"norad_id": 39150, "name": "GAOFEN-1", "group": "resource", "lat": 30.699481955297724, "lon": -104.15085969735993, "alt_km": 630.0534468950336, "timestamp": "2025-12-26T16:33:55.240871+00:00", "meta": {"OBJECT_NAME": "GAOFEN-1", "OBJECT_ID": "2013-018A", "EPOCH": "2025-12-26T06:08:10.567968", "MEAN_MOTION": 14.76503966, "ECCENTRICITY": 0.00185618, "INCLINATION": 97.9307, "RA_OF_ASC_NODE": 70.6747, "ARG_OF_PERICENTER": 102.1132, "MEAN_ANOMALY": 258.2159, "EPHEMERIS_TYPE": 0, "CLASSIFICATION_TYPE": "U", "NORAD_CAT_ID": 39150, "ELEMENT_SET_NO": 999, "REV_AT_EPOCH": 68272, "BSTAR": 0.00014946539, "MEAN_MOTION_DOT": 9.93e-06, "MEAN_MOTION_DDOT": 0}, "tle": {"line1": "1 39150U 13018A   25360.25567787  .00000993  00000+0  14947-3 0  9992", "line2": "2 39150  97.9307  70.6747 0018561 102.1132 258.2159 14.76503966682721"}}, "geometry": {"type": "Point", "coordinates": [-104.15085969735993, 30.699481955297724]}}, {"type": "Feature", "properties": {"norad_id": 39160, "name": "VNREDSAT 1", "group": "resource", "lat": -9.719607648827575, "lon": 56.843708670584334, "alt_km": 681.4493472555978, "timestamp": "2025-12-26T16:33:55.240880+00:00", "meta": {"OBJECT_NAME": "VNREDSAT 1", "OBJECT_ID": "2013-021B", "EPOCH": "2025-12-26T06:46:27.844608", "MEAN_MOTION": 14.64943236, "ECCENTRICITY": 0.00011706, "INCLINATION": 97.9351, "RA_OF_ASC_NODE": 55.0812, "ARG_OF_PERICENTER": 82.9902, "MEAN_ANOMALY": 277.1435, "EPHEMERIS_TYPE": 0, "CLASSIFICATION_TYPE": "U", "NORAD_CAT_ID": 39160, "ELEMENT_SET_NO": 999, "REV_AT_EPOCH": 67497, "BSTAR": 0.00018100471, "MEAN_MOTION_DOT": 9.23e-06, "MEAN_MOTION_DDOT": 0}, "tle": {"line1": "1 39160U 13021B   25360.28226672  .00000923  00000+0  18100-3 0  9993", "line2": "2 39160  97.9351  55.0812 0001170  82.9902 277.1435 14.64943236674979"}}, "geometry": {"type": "Point", "coordinates": [56.843708670584334, -9.719607648827575]}}, {"type": "Feature", "properties": {"norad_id": 39227, "name": "ARIRANG-5 (KOMPSAT-5)", "group": "resource", "lat": -71.79030592059205, "lon": -19.20604238933779, "alt_km": 561.9300987547513, "timestamp": "2025-12-26T16:33:55.240889+00:00", "meta": {"OBJECT_NAME": "ARIRANG-5 (KOMPSAT-5)", "OBJECT_ID": "2013-042A", "EPOCH": "2025-12-26T07:27:40.644576", "MEAN_MOTION": 15.04488611, "ECCENTRICITY": 0.00029572, "INCLINATION": 97.6166, "RA_OF_ASC_NODE": 184.4222, "ARG_OF_PERICENTER": 33.737, "MEAN_ANOMALY": 326.4044, "EPHEMERIS_TYPE": 0, "CLASSIFICATION_TYPE": "U", "NORAD_CAT_ID": 39227, "ELEMENT_SET_NO": 999, "REV_AT_EPOCH": 67786, "BSTAR": 0.00016785534, "MEAN_MOTION_DOT": 2.288e-05, "MEAN_MOTION_DDOT": 0}, "tle": {"line1": "1 39227U 13042A   25360.31088709  .00002288  00000+0  16786-3 0  9995", "line2": "2 39227  97.6166 184.4222 0002957  33.7370 326.4044 15.04488611677864"}}, "geometry": {"type": "Point", "coordinates": [-19.20604238933779, -71.79030592059205]}}, {"type": "Feature", "properties": {"norad_id": 39418, "name": "SKYSAT-A", "group": "resource", "lat": -80.7231763768202, "lon": 177.66581364718343, "alt_km": 535.1327610805329, "timestamp": "2025-12-26T16:33:55.240899+00:00", "meta": {"OBJECT_NAME": "SKYSAT-A", "OBJECT_ID": "2013-066C", "EPOCH": "2025-12-26T02:41:27.845376", "MEAN_MOTION": 15.11697781, "ECCENTRICITY": 0.00217389, "INCLINATION": 97.4086, "RA_OF_ASC_NODE": 49.9135, "ARG_OF_PERICENTER": 188.7352, "MEAN_ANOMALY": 171.3503, "EPHEMERIS_TYPE": 0, "CLASSIFICATION_TYPE": "U", "NORAD_CAT_ID": 39418, "ELEMENT_SET_NO": 999, "REV_AT_EPOCH": 66232, "BSTAR": 0.00020437937, "MEAN_MOTION_DOT": 3.435e-05, "MEAN_MOTION_DDOT": 0}, "tle": {"line1": "1 39418U 13066C   25360.11212784  .00003435  00000+0  20438-3 0  9997", "line2": "2 39418  97.4086  49.9135 0021738 188.7352 171.3503 15.11697781662322"}}, "geometry": {"type": "Point", "coordinates": [177.66581364718343, -80.7231763768202]}}, {"type": "Feature", "properties": {"norad_id": 39419, "name": "DUBAISAT-2", "group": "resource", "lat": -63.304060729736825, "lon": 155.59241409019964, "alt_km": 541.7911513605131, "timestamp": "2025-12-26T16:33:55.240909+00:00", "meta": {"OBJECT_NAME": "DUBAISAT-2", "OBJECT_ID": "2013-066D", "EPOCH": "2025-12-26T05:55:59.405376", "MEAN_MOTION": 15.08490005, "ECCENTRICITY": 0.00097607, "INCLINATION": 97.4469, "RA_OF_ASC_NODE": 350.2396, "ARG_OF_PERICENTER": 268.6369, "MEAN_ANOMALY": 91.3742, "EPHEMERIS_TYPE": 0, "CLASSIFICATION_TYPE": "U", "NORAD_CAT_ID": 39419, "ELEMENT_SET_NO": 999, "REV_AT_EPOCH": 66030, "BSTAR": 0.00052385505, "MEAN_MOTION_DOT": 8.118e-05, "MEAN_MOTION_DDOT": 0}, "tle": {"line1": "1 39419U 13066D   25360.24721534  .00008118  00000+0  52386-3 0  9990", "line2": "2 39419  97.4469 350.2396 0009760 268.6369  91.3742 15.08490005660300"}}, "geometry": {"type": "Point", "coordinates": [155.59241409019964, -63.304060729736825]}}, {"type": "Feature", "properties": {"norad_id": 39574, "name": "GPM-CORE", "group": "resource", "lat": 62.13465349005077, "lon": -131.94354964203075, "alt_km": 431.36409265763996, "timestamp": "2025-12-26T16:33:55.240918+00:00", "meta": {"OBJECT_NAME": "GPM-CORE", "OBJECT_ID": "2014-009C", "EPOCH": "2025-12-26T05:21:16.145856", "MEAN_MOTION": 15.44676375, "ECCENTRICITY": 0.0009044, "INCLINATION": 64.9729, "RA_OF_ASC_NODE": 167.5271, "ARG_OF_PERICENTER": 251.3471, "MEAN_ANOMALY": 108.6688, "EPHEMERIS_TYPE": 0, "CLASSIFICATION_TYPE": "U", "NORAD_CAT_ID": 39574, "ELEMENT_SET_NO": 999, "REV_AT_EPOCH": 67109, "BSTAR": 0.00019437588, "MEAN_MOTION_DOT": 8.882e-05, "MEAN_MOTION_DDOT": 0}, "tle": {"line1": "1 39574U 14009C   25360.22310354  .00008882  00000+0  19438-3 0  9991", "line2": "2 39574  64.9729 167.5271 0009044 251.3471 108.6688 15.44676375671094"}}, "geometry": {"type": "Point", "coordinates": [-131.94354964203075, 62.13465349005077]}}]}